SARSAT 7 (NOAA 15)      
1 25338U 98030A   17051.51173198  .00000030  00000-0  31630-4 0  9990
2 25338  98.7851  62.1727 0010590 179.8460 180.2724 14.25777932976380
GPS BIIR-07             
1 26690U 01004A   17051.50064998 -.00000025  00000-0  00000+0 0  9990
2 26690  53.0230 162.7070 0178685 255.3089 151.0243  2.00554731117673
METEOSAT-8 (MSG-1)      
1 27509U 02040B   17052.12342819  .00000134  00000-0  00000+0 0  9991
2 27509   4.6396  58.7910 0000146 237.7360 300.4032  1.00271108 53125
GPS BIIR-08             
1 27663U 03005A   17051.59400059 -.00000082  00000-0  00000+0 0  9998
2 27663  56.7344 349.4268 0091037  21.6379 190.4693  2.00566870103032
INSAT 3A                
1 27714U 03013A   17051.48313556 -.00000189  00000-0  00000+0 0  9995
2 27714   0.9092  88.6731 0016390 230.2510 287.2925  0.99801481 50817
GPS BIIR-11             
1 28190U 04009A   17051.28598997 -.00000026  00000-0  00000+0 0  9992
2 28190  55.9414  50.5451 0099986  51.7590  89.6019  2.00566642 94702
GPS BIIR-12             
1 28361U 04023A   17051.24191083  .00000063  00000-0  00000+0 0  9999
2 28361  54.1334 224.7199 0114153 217.6911 166.7175  2.00549249 92793
GPS BIIR-13             
1 28474U 04045A   17051.38166087 -.00000028  00000-0  00000+0 0  9991
2 28474  54.1716 102.4941 0168415 244.6962 240.2094  2.00556166 90157
SARSAT 10 (NOAA 18)     
1 28654U 05018A   17051.51632029 -.00000005  00000-0  22678-4 0  9996
2 28654  99.1913  70.8290 0014868  42.1660 318.0651 14.12325546605795
GPS BIIR-14M            
1 28874U 05038A   17051.25228587 -.00000028  00000-0  00000+0 0  9998
2 28874  56.1011  47.7919 0118958 253.5268 242.8213  2.00574665 83553
MSG-2                   
1 28912U 05049B   17051.24156455  .00000052  00000-0  00000+0 0  9992
2 28912   1.9758  70.5329 0000628  32.1128 144.0510  1.00267478 40940
GOES 13                 
1 29155U 06018A   17050.79056015 -.00000260  00000-0  00000+0 0  9991
2 29155   0.3315  99.3786 0004015 313.8522 306.7813  1.00274338 39381
SARSAT 11 (METOP-A)     
1 29499U 06044A   17052.22615633  .00000002  00000-0  21067-4 0  9992
2 29499  98.6947 113.7023 0001885 128.1001 309.1963 14.21498016536663
GPS BIIR-16M            
1 29601U 06052A   17051.11383651 -.00000084  00000-0  00000+0 0  9995
2 29601  56.7067 348.3662 0062951  44.1721 316.3359  2.00575088 75181
GPS BIIR-17M            
1 32260U 07047A   17051.43091651  .00000058  00000-0  00000+0 0  9996
2 32260  53.2603 221.1640 0089649  31.6297 328.8924  2.00554275 68576
GPS BIIR-18M            
1 32384U 07062A   17051.50414806 -.00000026  00000-0  00000+0 0  9995
2 32384  56.1628  48.3559 0007328 333.7365 213.3092  2.00564403 67304
SARSAT 12 (NOAA 19)     
1 33591U 09005A   17051.50466967  .00000076  00000-0  66375-4 0  9996
2 33591  99.0775  16.7682 0013099 238.7093 121.2796 14.12154523414188
GOES 14                 
1 35491U 09033A   17050.87257772 -.00000103  00000-0  00000+0 0  9999
2 35491   0.0292 129.7464 0006464 113.4475 116.7154  1.00273391 28028
GOES 15                 
1 36411U 10008A   17050.95908492  .00000080  00000-0  00000+0 0  9990
2 36411   0.0525 245.5877 0000994 250.6684 223.7270  1.00276240 25552
ELEKTRO-L 1             
1 37344U 11001A   17052.19592200 -.00000212  00000-0  00000+0 0  9992
2 37344   2.2032  78.3831 0004545 266.2615 210.5055  1.00237395 22347
GLONASS-K 1             
1 37372U 11009A   17051.70773466  .00000020  00000-0  00000+0 0  9998
2 37372  65.3449  68.5744 0009252 244.1220 310.6410  2.13108105 46569
GPS BIIF-2              
1 37753U 11036A   17051.12263689 -.00000029  00000-0  00000+0 0  9998
2 37753  55.3810 105.4448 0061221  29.0011  32.8429  2.00561474 40999
GSAT0101 (GALILEO-PFM)  
1 37846U 11060A   17049.72200262 -.00000023  00000-0  00000+0 0  9993
2 37846  55.7367  75.0283 0004871 312.3976  47.6181  1.70473885 33184
GSAT0102 (GALILEO-FM2)  
1 37847U 11060B   17049.59249205 -.00000024  00000-0  00000+0 0  9990
2 37847  55.7373  75.0314 0006222 299.0866  23.9038  1.70476052 33185
LUCH 5A                 
1 37951U 11074B   17051.34113832 -.00000055  00000-0  00000+0 0  9997
2 37951   1.5655 192.2987 0004573 127.9539 119.9759  1.00273704 19052
MSG-3                   
1 38552U 12035B   17050.58429322 -.00000015  00000-0  00000-0 0  9999
2 38552   0.7002  45.5480 0000404 202.4412 111.9823  1.00266695 16752
SARSAT 13 (METOP-B)     
1 38771U 12049A   17051.20660713 -.00000005  00000-0  17784-4 0  9998
2 38771  98.6952 113.2439 0001151 151.8058 276.4602 14.21490830229659
GPS BIIF-3              
1 38833U 12053A   17051.02667404  .00000005  00000-0  00000+0 0  9993
2 38833  54.2278 283.4044 0054382  24.1546 336.1576  2.00560153 32079
GSAT0103 (GALILEO-FM3)  
1 38857U 12055A   17049.17956839  .00000030  00000-0  00000-0 0  9996
2 38857  54.9145 195.3258 0002565 211.7114 148.2297  1.70473746 27099
GSAT0104 (GALILEO-FM4)  
1 38858U 12055B   17050.28707337  .00000030  00000-0  00000+0 0  9997
2 38858  54.9160 195.2940 0001667 194.1004 165.8523  1.70473782 27062
GPS BIIF-4              
1 39166U 13023A   17051.37979035 -.00000031  00000-0  00000+0 0  9995
2 39166  55.8099  44.8395 0043456  13.1671 346.9686  2.00565579 27603
INSAT-3D                
1 39216U 13038B   17051.35405175 -.00000165  00000-0  00000+0 0  9992
2 39216   0.0112 188.6308 0001512 144.8781  26.4592  1.00273542 13177
GPS BIIF-5              
1 39533U 14008A   17050.38629572 -.00000012  00000-0  00000+0 0  9994
2 39533  54.3831 288.7080 0024366 180.8192 179.2334  2.00558970 21954
LUCH 5V                 
1 39727U 14023A   17051.54435144 -.00000274  00000-0  00000+0 0  9995
2 39727   2.9316 299.1904 0003959  33.2525 108.8268  1.00268434528399
GPS BIIF-6              
1 39741U 14026A   17051.16268299 -.00000028  00000-0  00000+0 0  9994
2 39741  55.3690 104.9626 0009057 279.9969  79.9670  2.00569762 20247
GPS BIIF-7              
1 40105U 14045A   17051.25516737  .00000065  00000-0  00000+0 0  9994
2 40105  54.6557 224.5637 0006913 105.1956 254.8733  2.00561856 18698
GSAT0201 (GALILEO 5)    
1 40128U 14050A   17051.63432291 -.00000048  00000-0  00000+0 0  9991
2 40128  50.2424  49.8828 1611914  59.4524 315.5306  1.85519918 17115
GSAT0202 (GALILEO 6)    
1 40129U 14050B   17051.36336780 -.00000050  00000-0  00000+0 0  9991
2 40129  50.2967  48.8864 1612597  60.4818 314.6869  1.85520485 17309
GPS BIIF-8              
1 40294U 14068A   17051.12174494 -.00000019  00000-0  00000+0 0  9994
2 40294  54.9864 165.1537 0004464 354.9521   5.0316  2.00549054 16913
GLONASS-K 2             
1 40315U 14075A   17052.22896881 -.00000023  00000-0  00000+0 0  9994
2 40315  64.4658 309.4048 0013665 211.4399 151.3169  2.13098663 17345
GPS BIIF-9              
1 40534U 15013A   17051.26184159 -.00000085  00000-0  00000+0 0  9999
2 40534  54.9775 344.4744 0017388 349.1408  10.8336  2.00565652 13984
GSAT0203 (GALILEO 7)    
1 40544U 15017A   17050.09130188 -.00000021  00000-0  00000+0 0  9997
2 40544  55.5257  75.3257 0004575 256.4649 103.5421  1.70475729 11802
GSAT0204 (GALILEO 8)    
1 40545U 15017B   17051.63422706 -.00000011  00000-0  00000+0 0  9998
2 40545  55.5333  75.2927 0002280 242.2407 117.7986  1.70475826 11842
GPS BIIF-10             
1 40730U 15033A   17050.92565566 -.00000035  00000-0  00000+0 0  9991
2 40730  55.3448  44.5820 0026975 307.9625  51.8159  2.00573585 11735
GSAT0205 (GALILEO 9)    
1 40889U 15045A   17051.87314991 -.00000045  00000-0  00000+0 0  9999
2 40889  57.0951 315.2954 0004377   2.3355 357.7123  1.70474448  8999
GSAT0206 (GALILEO 10)   
1 40890U 15045B   17049.74676332 -.00000055  00000-0  00000+0 0  9995
2 40890  57.0957 315.3504 0002821 355.3678   4.6734  1.70474519  8984
GPS BIIF-11             
1 41019U 15062A   17051.47532925 -.00000021  00000-0  00000+0 0  9993
2 41019  54.9971 164.9229 0023178 200.6480 159.2467  2.00563190  9566
GSAT0209 (GALILEO 12)   
1 41174U 15079A   17046.39984247  .00000023  00000-0  00000-0 0  9998
2 41174  54.9284 195.0890 0003072 292.1215  67.7919  1.70473890  6832
GSAT0208 (GALILEO 11)   
1 41175U 15079B   17050.72589184  .00000029  00000-0  00000+0 0  9997
2 41175  54.9267 194.9704 0002216 288.3783  71.5545  1.70473993  7329
GPS BIIF-12             
1 41328U 16007A   17051.06170090  .00000066  00000-0  00000+0 0  9990
2 41328  54.9148 224.7270 0008894 214.2692 145.6660  2.00560780  7610
GSAT0211 (GALILEO 14)   
1 41549U 16030A   17049.67205533 -.00000055  00000-0  00000-0 0  9996
2 41549  57.2353 315.0861 0003501 316.5511  43.4655  1.70474272  4617
GSAT0210 (GALILEO 13)   
1 41550U 16030B   17049.96532907 -.00000054  00000-0  00000+0 0  9996
2 41550  57.2346 315.0802 0002357 290.4628  69.5561  1.70474208  4606
